[{"OBJECT_NAME":"CONTINUUM-1","OBJECT_ID":"2023-001AN","EPOCH":"2026-03-09T23:17:35.458656","MEAN_MOTION":15.27981258,"ECCENTRICITY":0.00109493,"INCLINATION":97.3456,"RA_OF_ASC_NODE":133.3964,"ARG_OF_PERICENTER":60.1976,"MEAN_ANOMALY":300.0351,"EPHEMERIS_TYPE":0,"CLASSIFICATION_TYPE":"U","NORAD_CAT_ID":55045,"ELEMENT_SET_NO":999,"REV_AT_EPOCH":17709,"BSTAR":0.00052859897,"MEAN_MOTION_DOT":0.00014395,"MEAN_MOTION_DDOT":0},{"OBJECT_NAME":"STARLINK-35081","OBJECT_ID":"2025-240C","EPOCH":"2026-03-09T23:12:45.392256","MEAN_MOTION":15.30212281,"ECCENTRICITY":0.00023754,"INCLINATION":53.1616,"RA_OF_ASC_NODE":61.3252,"ARG_OF_PERICENTER":79.1326,"MEAN_ANOMALY":280.9942,"EPHEMERIS_TYPE":0,"CLASSIFICATION_TYPE":"U","NORAD_CAT_ID":66148,"ELEMENT_SET_NO":999,"REV_AT_EPOCH":2203,"BSTAR":0.00086239339,"MEAN_MOTION_DOT":0.0002528,"MEAN_MOTION_DDOT":0}]
